{"type": "FeatureCollection", "features": [ {"type": "Feature", "properties": {"norad_id": 41836, "name": "HIMAWARI-9", "group": "weather", "lat": -0.0219940635656814, "lon": -84.53086986834998, "alt_km": 35779.23597731157, "timestamp": "2025-12-08T03:50:06.648679+00:00", "meta": {"OBJECT_NAME": "HIMAWARI-9", "OBJECT_ID": "2016-064A", "EPOCH": "2025-12-06T21:52:38.561088", "MEAN_MOTION": 1.00273563, "ECCENTRICITY": 0.00015412, "INCLINATION": 0.0141, "RA_OF_ASC_NODE": 56.4298, "ARG_OF_PERICENTER": 225.2195, "MEAN_ANOMALY": 263.2228, "EPHEMERIS_TYPE": 0, "CLASSIFICATION_TYPE": "U", "NORAD_CAT_ID": 41836, "ELEMENT_SET_NO": 999, "REV_AT_EPOCH": 3328, "BSTAR": 0, "MEAN_MOTION_DOT": -2.69e-06, "MEAN_MOTION_DDOT": 0}, "tle": {"line1": "1 41836U 16064A   25340.91155742 -.00000269  00000+0  00000+0 0  9993", "line2": "2 41836   0.0141  56.4298 0001541 225.2195 263.2228  1.00273563 33289"}}, "geometry": {"type": "Point", "coordinates": [-84.53086986834998, -0.0219940635656814]}}, {"type": "Feature", "properties": {"norad_id": 41866, "name": "GOES 16", "group": "weather", "lat": -0.04150110704337717, "lon": 30.056173956414327, "alt_km": 35795.838523520324, "timestamp": "2025-12-08T03:50:06.648691+00:00", "meta": {"OBJECT_NAME": "GOES 16", "OBJECT_ID": "2016-071A", "EPOCH": "2025-12-07T06:17:19.680576", "MEAN_MOTION": 1.00271454, "ECCENTRICITY": 0.00035237, "INCLINATION": 0.0652, "RA_OF_ASC_NODE": 105.9469, "ARG_OF_PERICENTER": 153.7842, "MEAN_ANOMALY": 166.2201, "EPHEMERIS_TYPE": 0, "CLASSIFICATION_TYPE": "U", "NORAD_CAT_ID": 41866, "ELEMENT_SET_NO": 999, "REV_AT_EPOCH": 3317, "BSTAR": 0, "MEAN_MOTION_DOT": -8.6e-07, "MEAN_MOTION_DDOT": 0}, "tle": {"line1": "1 41866U 16071A   25341.26203334 -.00000086  00000+0  00000+0 0  9991", "line2": "2 41866   0.0652 105.9469 0003523 153.7842 166.2201  1.00271454 33173"}}, "geometry": {"type": "Point", "coordinates": [30.056173956414327, -0.04150110704337717]}}, {"type": "Feature", "properties": {"norad_id": 41882, "name": "FENGYUN 4A", "group": "weather", "lat": 0.10080373810337642, "lon": -101.44583345197182, "alt_km": 35767.310369215345, "timestamp": "2025-12-08T03:50:06.648703+00:00", "meta": {"OBJECT_NAME": "FENGYUN 4A", "OBJECT_ID": "2016-077A", "EPOCH": "2025-12-07T00:41:38.834016", "MEAN_MOTION": 1.0027613, "ECCENTRICITY": 0.00050078, "INCLINATION": 1.8341, "RA_OF_ASC_NODE": 82.4469, "ARG_OF_PERICENTER": 142.6918, "MEAN_ANOMALY": 345.1376, "EPHEMERIS_TYPE": 0, "CLASSIFICATION_TYPE": "U", "NORAD_CAT_ID": 41882, "ELEMENT_SET_NO": 999, "REV_AT_EPOCH": 3300, "BSTAR": 0, "MEAN_MOTION_DOT": -3.52e-06, "MEAN_MOTION_DDOT": 0}, "tle": {"line1": "1 41882U 16077A   25341.02892169 -.00000352  00000+0  00000+0 0  9995", "line2": "2 41882   1.8341  82.4469 0005007 142.6918 345.1376  1.00276130 33003"}}, "geometry": {"type": "Point", "coordinates": [-101.44583345197182, 0.10080373810337642]}}, {"type": "Feature", "properties": {"norad_id": 41884, "name": "CYGFM05", "group": "weather", "lat": 2.396787483893033, "lon": 80.477076174837, "alt_km": 427.54414397434266, "timestamp": "2025-12-08T03:50:06.648715+00:00", "meta": {"OBJECT_NAME": "CYGFM05", "OBJECT_ID": "2016-078A", "EPOCH": "2025-12-06T23:56:44.248704", "MEAN_MOTION": 15.47324397, "ECCENTRICITY": 0.00094661, "INCLINATION": 34.96, "RA_OF_ASC_NODE": 84.6299, "ARG_OF_PERICENTER": 129.2466, "MEAN_ANOMALY": 230.9097, "EPHEMERIS_TYPE": 0, "CLASSIFICATION_TYPE": "U", "NORAD_CAT_ID": 41884, "ELEMENT_SET_NO": 999, "REV_AT_EPOCH": 49887, "BSTAR": 0.00054005998, "MEAN_MOTION_DOT": 0.00028521, "MEAN_MOTION_DDOT": 0}, "tle": {"line1": "1 41884U 16078A   25340.99773436  .00028521  00000+0  54006-3 0  9994", "line2": "2 41884  34.9600  84.6299 0009466 129.2466 230.9097 15.47324397498873"}}, "geometry": {"type": "Point", "coordinates": [80.477076174837, 2.396787483893033]}}, {"type": "Feature", "properties": {"norad_id": 41885, "name": "CYGFM04", "group": "weather", "lat": -10.73799293550287, "lon": -112.28479904596864, "alt_km": 411.4785628200161, "timestamp": "2025-12-08T03:50:06.648725+00:00", "meta": {"OBJECT_NAME": "CYGFM04", "OBJECT_ID": "2016-078B", "EPOCH": "2025-12-07T06:53:14.362656", "MEAN_MOTION": 15.50024545, "ECCENTRICITY": 0.00087773, "INCLINATION": 34.9352, "RA_OF_ASC_NODE": 57.6748, "ARG_OF_PERICENTER": 161.318, "MEAN_ANOMALY": 198.7865, "EPHEMERIS_TYPE": 0, "CLASSIFICATION_TYPE": "U", "NORAD_CAT_ID": 41885, "ELEMENT_SET_NO": 999, "REV_AT_EPOCH": 49909, "BSTAR": 0.00052828767, "MEAN_MOTION_DOT": 0.00030684, "MEAN_MOTION_DDOT": 0}, "tle": {"line1": "1 41885U 16078B   25341.28697179  .00030684  00000+0  52829-3 0  9991", "line2": "2 41885  34.9352  57.6748 0008777 161.3180 198.7865 15.50024545499096"}}, "geometry": {"type": "Point", "coordinates": [-112.28479904596864, -10.73799293550287]}}, {"type": "Feature", "properties": {"norad_id": 41886, "name": "CYGFM02", "group": "weather", "lat": -5.351776751679437, "lon": -121.95435612326786, "alt_km": 405.41009910424145, "timestamp": "2025-12-08T03:50:06.648737+00:00", "meta": {"OBJECT_NAME": "CYGFM02", "OBJECT_ID": "2016-078C", "EPOCH": "2025-12-07T06:56:49.173792", "MEAN_MOTION": 15.51382069, "ECCENTRICITY": 0.00105145, "INCLINATION": 34.944, "RA_OF_ASC_NODE": 56.0541, "ARG_OF_PERICENTER": 160.5047, "MEAN_ANOMALY": 199.6079, "EPHEMERIS_TYPE": 0, "CLASSIFICATION_TYPE": "U", "NORAD_CAT_ID": 41886, "ELEMENT_SET_NO": 999, "REV_AT_EPOCH": 49922, "BSTAR": 0.00053597572, "MEAN_MOTION_DOT": 0.0003271, "MEAN_MOTION_DDOT": 0}, "tle": {"line1": "1 41886U 16078C   25341.28945803  .00032710  00000+0  53598-3 0  9998", "line2": "2 41886  34.9440  56.0541 0010514 160.5047 199.6079 15.51382069499225"}}, "geometry": {"type": "Point", "coordinates": [-121.95435612326786, -5.351776751679437]}}, {"type": "Feature", "properties": {"norad_id": 41887, "name": "CYGFM01", "group": "weather", "lat": 21.042057531923675, "lon": 112.85847530300363, "alt_km": 418.73692805312476, "timestamp": "2025-12-08T03:50:06.648747+00:00", "meta": {"OBJECT_NAME": "CYGFM01", "OBJECT_ID": "2016-078D", "EPOCH": "2025-12-06T23:48:24.880032", "MEAN_MOTION": 15.47893664, "ECCENTRICITY": 0.00090839, "INCLINATION": 34.9428, "RA_OF_ASC_NODE": 87.0575, "ARG_OF_PERICENTER": 120.3222, "MEAN_ANOMALY": 239.8399, "EPHEMERIS_TYPE": 0, "CLASSIFICATION_TYPE": "U", "NORAD_CAT_ID": 41887, "ELEMENT_SET_NO": 999, "REV_AT_EPOCH": 49881, "BSTAR": 0.00053007626, "MEAN_MOTION_DOT": 0.00028553, "MEAN_MOTION_DDOT": 0}, "tle": {"line1": "1 41887U 16078D   25340.99195463  .00028553  00000+0  53008-3 0  9991", "line2": "2 41887  34.9428  87.0575 0009083 120.3222 239.8399 15.47893664498810"}}, "geometry": {"type": "Point", "coordinates": [112.85847530300363, 21.042057531923675]}}, {"type": "Feature", "properties": {"norad_id": 41888, "name": "CYGFM08", "group": "weather", "lat": 31.91220608856018, "lon": 125.56837644267252, "alt_km": 413.168520736288, "timestamp": "2025-12-08T03:50:06.648757+00:00", "meta": {"OBJECT_NAME": "CYGFM08", "OBJECT_ID": "2016-078E", "EPOCH": "2025-12-07T07:26:20.570784", "MEAN_MOTION": 15.49099947, "ECCENTRICITY": 0.00109343, "INCLINATION": 34.946, "RA_OF_ASC_NODE": 68.034, "ARG_OF_PERICENTER": 148.8812, "MEAN_ANOMALY": 211.2559, "EPHEMERIS_TYPE": 0, "CLASSIFICATION_TYPE": "U", "NORAD_CAT_ID": 41888, "ELEMENT_SET_NO": 999, "REV_AT_EPOCH": 49909, "BSTAR": 0.0005229452, "MEAN_MOTION_DOT": 0.00029414, "MEAN_MOTION_DDOT": 0}, "tle": {"line1": "1 41888U 16078E   25341.30996031  .00029414  00000+0  52295-3 0  9992", "line2": "2 41888  34.9460  68.0340 0010934 148.8812 211.2559 15.49099947499090"}}, "geometry": {"type": "Point", "coordinates": [125.56837644267252, 31.91220608856018]}}, {"type": "Feature", "properties": {"norad_id": 41890, "name": "CYGFM07", "group": "weather", "lat": 24.14220902155422, "lon": 91.40163614621981, "alt_km": 416.8366194623932, "timestamp": "2025-12-08T03:50:06.648768+00:00", "meta": {"OBJECT_NAME": "CYGFM07", "OBJECT_ID": "2016-078G", "EPOCH": "2025-12-07T05:59:39.167232", "MEAN_MOTION": 15.49672777, "ECCENTRICITY": 0.00092905, "INCLINATION": 34.9482, "RA_OF_ASC_NODE": 57.4395, "ARG_OF_PERICENTER": 166.8164, "MEAN_ANOMALY": 193.2802, "EPHEMERIS_TYPE": 0, "CLASSIFICATION_TYPE": "U", "NORAD_CAT_ID": 41890, "ELEMENT_SET_NO": 999, "REV_AT_EPOCH": 49910, "BSTAR": 0.00053383304, "MEAN_MOTION_DOT": 0.00030627, "MEAN_MOTION_DDOT": 0}, "tle": {"line1": "1 41890U 16078G   25341.24975888  .00030627  00000+0  53383-3 0  9992", "line2": "2 41890  34.9482  57.4395 0009290 166.8164 193.2802 15.49672777499102"}}, "geometry": {"type": "Point", "coordinates": [91.40163614621981, 24.14220902155422]}}, {"type": "Feature", "properties": {"norad_id": 41891, "name": "CYGFM03", "group": "weather", "lat": -30.426894034066596, "lon": -69.34611234553888, "alt_km": 418.6250736758584, "timestamp": "2025-12-08T03:50:06.648779+00:00", "meta": {"OBJECT_NAME": "CYGFM03", "OBJECT_ID": "2016-078H", "EPOCH": "2025-12-07T06:41:44.733408", "MEAN_MOTION": 15.49575855, "ECCENTRICITY": 0.0008555, "INCLINATION": 34.9434, "RA_OF_ASC_NODE": 59.163, "ARG_OF_PERICENTER": 154.006, "MEAN_ANOMALY": 206.1093, "EPHEMERIS_TYPE": 0, "CLASSIFICATION_TYPE": "U", "NORAD_CAT_ID": 41891, "ELEMENT_SET_NO": 999, "REV_AT_EPOCH": 49908, "BSTAR": 0.00052952955, "MEAN_MOTION_DOT": 0.00030266, "MEAN_MOTION_DDOT": 0}, "tle": {"line1": "1 41891U 16078H   25341.27898997  .00030266  00000+0  52953-3 0  9992", "line2": "2 41891  34.9434  59.1630 0008555 154.0060 206.1093 15.49575855499080"}}, "geometry": {"type": "Point", "coordinates": [-69.34611234553888, -30.426894034066596]}}]}